{
  "type": "FeatureCollection",
  "features": [
    {
      "type": "Feature",
      "properties": {
        "norad_id": 39583,
        "name": "COSMOS 2251 DEB",
        "group": "cosmos-2251-debris",
        "lat": -73.05662879359333,
        "lon": 154.16313843190827,
        "alt_km": 649.9927813290378,
        "timestamp": "2025-12-24T03:53:30.045521+00:00",
        "meta_object_name": "COSMOS 2251 DEB",
        "meta_object_id": "1993-036BUN",
        "meta_epoch": "2025-12-22T07:53:12.048288",
        "meta_mean_motion": 14.60596779,
        "meta_eccentricity": 0.0136989,
        "meta_inclination": 73.9314,
        "meta_ra_of_asc_node": 228.7915,
        "meta_arg_of_pericenter": 340.2609,
        "meta_mean_anomaly": 19.3281,
        "meta_ephemeris_type": 0,
        "meta_classification_type": "U",
        "meta_norad_cat_id": 39583,
        "meta_element_set_no": 999,
        "meta_rev_at_epoch": 61919,
        "meta_bstar": 0.0015693487,
        "meta_mean_motion_dot": 8.689e-05,
        "meta_mean_motion_ddot": 0,
        "tle_line1": "1 39583U 93036BUN 25356.32861167  .00008689  00000+0  15693-2 0  9990",
        "tle_line2": "2 39583  73.9314 228.7915 0136989 340.2609  19.3281 14.60596779619195"
      },
      "geometry": {
        "type": "Point",
        "coordinates": [
          154.16313843190827,
          -73.05662879359333
        ]
      }
    },
    {
      "type": "Feature",
      "properties": {
        "norad_id": 39585,
        "name": "COSMOS 2251 DEB",
        "group": "cosmos-2251-debris",
        "lat": 24.225618489812028,
        "lon": -73.02515621842466,
        "alt_km": 651.049541619821,
        "timestamp": "2025-12-24T03:53:30.045531+00:00",
        "meta_object_name": "COSMOS 2251 DEB",
        "meta_object_id": "1993-036BUQ",
        "meta_epoch": "2025-12-17T13:45:47.587680",
        "meta_mean_motion": 14.58681164,
        "meta_eccentricity": 0.00655713,
        "meta_inclination": 74.0421,
        "meta_ra_of_asc_node": 292.1145,
        "meta_arg_of_pericenter": 51.6529,
        "meta_mean_anomaly": 309.0503,
        "meta_ephemeris_type": 0,
        "meta_classification_type": "U",
        "meta_norad_cat_id": 39585,
        "meta_element_set_no": 999,
        "meta_rev_at_epoch": 62591,
        "meta_bstar": 0.00024435975,
        "meta_mean_motion_dot": 1.143e-05,
        "meta_mean_motion_ddot": 0,
        "tle_line1": "1 39585U 93036BUQ 25351.57346745  .00001143  00000+0  24436-3 0  9998",
        "tle_line2": "2 39585  74.0421 292.1145 0065571  51.6529 309.0503 14.58681164625913"
      },
      "geometry": {
        "type": "Point",
        "coordinates": [
          -73.02515621842466,
          24.225618489812028
        ]
      }
    },
    {
      "type": "Feature",
      "properties": {
        "norad_id": 39586,
        "name": "COSMOS 2251 DEB",
        "group": "cosmos-2251-debris",
        "lat": 72.71138898179704,
        "lon": -85.12775280806547,
        "alt_km": 830.2921879571823,
        "timestamp": "2025-12-24T03:53:30.045541+00:00",
        "meta_object_name": "COSMOS 2251 DEB",
        "meta_object_id": "1993-036BUR",
        "meta_epoch": "2025-12-15T23:50:08.053728",
        "meta_mean_motion": 14.21232237,
        "meta_eccentricity": 0.01008868,
        "meta_inclination": 74.0082,
        "meta_ra_of_asc_node": 222.4068,
        "meta_arg_of_pericenter": 356.2296,
        "meta_mean_anomaly": 66.1426,
        "meta_ephemeris_type": 0,
        "meta_classification_type": "U",
        "meta_norad_cat_id": 39586,
        "meta_element_set_no": 999,
        "meta_rev_at_epoch": 61018,
        "meta_bstar": 0.00043436803,
        "meta_mean_motion_dot": 9.7e-06,
        "meta_mean_motion_ddot": 0,
        "tle_line1": "1 39586U 93036BUR 25349.99314877  .00000970  00000+0  43437-3 0  9992",
        "tle_line2": "2 39586  74.0082 222.4068 0100886 356.2296  66.1426 14.21232237610182"
      },
      "geometry": {
        "type": "Point",
        "coordinates": [
          -85.12775280806547,
          72.71138898179704
        ]
      }
    },
    {
      "type": "Feature",
      "properties": {
        "norad_id": 39591,
        "name": "COSMOS 2251 DEB",
        "group": "cosmos-2251-debris",
        "lat": 72.63149656374344,
        "lon": -20.801384323317887,
        "alt_km": 755.771523136541,
        "timestamp": "2025-12-24T03:53:30.045552+00:00",
        "meta_object_name": "COSMOS 2251 DEB",
        "meta_object_id": "1993-036BUW",
        "meta_epoch": "2025-12-22T08:41:25.179936",
        "meta_mean_motion": 14.41830308,
        "meta_eccentricity": 0.00294833,
        "meta_inclination": 74.0192,
        "meta_ra_of_asc_node": 228.9144,
        "meta_arg_of_pericenter": 340.036,
        "meta_mean_anomaly": 136.9414,
        "meta_ephemeris_type": 0,
        "meta_classification_type": "U",
        "meta_norad_cat_id": 39591,
        "meta_element_set_no": 999,
        "meta_rev_at_epoch": 61915,
        "meta_bstar": 0.00024689328,
        "meta_mean_motion_dot": 7.85e-06,
        "meta_mean_motion_ddot": 0,
        "tle_line1": "1 39591U 93036BUW 25356.36209699  .00000785  00000+0  24689-3 0  9994",
        "tle_line2": "2 39591  74.0192 228.9144 0029483 340.0360 136.9414 14.41830308619156"
      },
      "geometry": {
        "type": "Point",
        "coordinates": [
          -20.801384323317887,
          72.63149656374344
        ]
      }
    },
    {
      "type": "Feature",
      "properties": {
        "norad_id": 40218,
        "name": "COSMOS 2251 DEB",
        "group": "cosmos-2251-debris",
        "lat": -17.339129083527247,
        "lon": -137.46463901614123,
        "alt_km": 747.6988605655661,
        "timestamp": "2025-12-24T03:53:30.045562+00:00",
        "meta_object_name": "COSMOS 2251 DEB",
        "meta_object_id": "1993-036BUX",
        "meta_epoch": "2025-12-14T10:48:31.251744",
        "meta_mean_motion": 14.41597705,
        "meta_eccentricity": 0.00168728,
        "meta_inclination": 74.0298,
        "meta_ra_of_asc_node": 245.6562,
        "meta_arg_of_pericenter": 328.6,
        "meta_mean_anomaly": 31.4147,
        "meta_ephemeris_type": 0,
        "meta_classification_type": "U",
        "meta_norad_cat_id": 40218,
        "meta_element_set_no": 999,
        "meta_rev_at_epoch": 58886,
        "meta_bstar": 0.00046023204,
        "meta_mean_motion_dot": 1.474e-05,
        "meta_mean_motion_ddot": 0,
        "tle_line1": "1 40218U 93036BUX 25348.45036171  .00001474  00000+0  46023-3 0  9998",
        "tle_line2": "2 40218  74.0298 245.6562 0016872 328.6000  31.4147 14.41597705588868"
      },
      "geometry": {
        "type": "Point",
        "coordinates": [
          -137.46463901614123,
          -17.339129083527247
        ]
      }
    },
    {
      "type": "Feature",
      "properties": {
        "norad_id": 40223,
        "name": "COSMOS 2251 DEB",
        "group": "cosmos-2251-debris",
        "lat": 2.8115311132508958,
        "lon": 66.00715414901624,
        "alt_km": 554.8027445707548,
        "timestamp": "2025-12-24T03:53:30.045572+00:00",
        "meta_object_name": "COSMOS 2251 DEB",
        "meta_object_id": "1993-036BVC",
        "meta_epoch": "2025-12-21T12:06:26.690112",
        "meta_mean_motion": 15.04482505,
        "meta_eccentricity": 0.00157052,
        "meta_inclination": 73.9371,
        "meta_ra_of_asc_node": 70.6668,
        "meta_arg_of_pericenter": 278.3258,
        "meta_mean_anomaly": 95.1407,
        "meta_ephemeris_type": 0,
        "meta_classification_type": "U",
        "meta_norad_cat_id": 40223,
        "meta_element_set_no": 999,
        "meta_rev_at_epoch": 59506,
        "meta_bstar": 0.0032560994,
        "meta_mean_motion_dot": 0.00045964,
        "meta_mean_motion_ddot": 0,
        "tle_line1": "1 40223U 93036BVC 25355.50447558  .00045964  00000+0  32561-2 0  9996",
        "tle_line2": "2 40223  73.9371  70.6668 0015705 278.3258  95.1407 15.04482505595064"
      },
      "geometry": {
        "type": "Point",
        "coordinates": [
          66.00715414901624,
          2.8115311132508958
        ]
      }
    },
    {
      "type": "Feature",
      "properties": {
        "norad_id": 40228,
        "name": "COSMOS 2251 DEB",
        "group": "cosmos-2251-debris",
        "lat": -25.92032311589415,
        "lon": 67.40069183892693,
        "alt_km": 761.0678709589401,
        "timestamp": "2025-12-24T03:53:30.045582+00:00",
        "meta_object_name": "COSMOS 2251 DEB",
        "meta_object_id": "1993-036BVH",
        "meta_epoch": "2025-12-22T22:40:43.832064",
        "meta_mean_motion": 14.41012867,
        "meta_eccentricity": 0.0024226,
        "meta_inclination": 74.0542,
        "meta_ra_of_asc_node": 241.6627,
        "meta_arg_of_pericenter": 301.6837,
        "meta_mean_anomaly": 73.6667,
        "meta_ephemeris_type": 0,
        "meta_classification_type": "U",
        "meta_norad_cat_id": 40228,
        "meta_element_set_no": 999,
        "meta_rev_at_epoch": 59068,
        "meta_bstar": 0.0002585,
        "meta_mean_motion_dot": 8.07e-06,
        "meta_mean_motion_ddot": 0,
        "tle_line1": "1 40228U 93036BVH 25356.94495176  .00000807  00000+0  25850-3 0  9990",
        "tle_line2": "2 40228  74.0542 241.6627 0024226 301.6837  73.6667 14.41012867590689"
      },
      "geometry": {
        "type": "Point",
        "coordinates": [
          67.40069183892693,
          -25.92032311589415
        ]
      }
    }
  ]
}